<?xml version="1.0" encoding="UTF-8"?>
<ndm xmlns:xsi="http://www.w3.org/2001/XMLSchema-instance" xsi:noNamespaceSchemaLocation="https://sanaregistry.org/r/ndmxml_unqualified/ndmxml-2.0.0-master-2.0.xsd">
<omm id="CCSDS_OMM_VERS" version="2.0">
<header><CREATION_DATE/><ORIGINATOR/></header><body><segment><metadata><OBJECT_NAME>ORBCOMM FM37 [-]</OBJECT_NAME><OBJECT_ID>2008-031E</OBJECT_ID><CENTER_NAME>EARTH</CENTER_NAME><REF_FRAME>TEME</REF_FRAME><TIME_SYSTEM>UTC</TIME_SYSTEM><MEAN_ELEMENT_THEORY>SGP4</MEAN_ELEMENT_THEORY></metadata><data><meanElements><EPOCH>2023-09-07T06:59:16.272384</EPOCH><MEAN_MOTION>14.75004786</MEAN_MOTION><ECCENTRICITY>.0005654</ECCENTRICITY><INCLINATION>48.4415</INCLINATION><RA_OF_ASC_NODE>176.1507</RA_OF_ASC_NODE><ARG_OF_PERICENTER>120.0312</ARG_OF_PERICENTER><MEAN_ANOMALY>20.0700</MEAN_ANOMALY></meanElements><tleParameters><EPHEMERIS_TYPE>0</EPHEMERIS_TYPE><CLASSIFICATION_TYPE>U</CLASSIFICATION_TYPE><NORAD_CAT_ID>33064</NORAD_CAT_ID><ELEMENT_SET_NO>999</ELEMENT_SET_NO><REV_AT_EPOCH>81843</REV_AT_EPOCH><BSTAR>.28968E-3</BSTAR><MEAN_MOTION_DOT>.1765E-4</MEAN_MOTION_DOT><MEAN_MOTION_DDOT>0</MEAN_MOTION_DDOT></tleParameters></data></segment></body></omm>
<omm id="CCSDS_OMM_VERS" version="2.0">
<header><CREATION_DATE/><ORIGINATOR/></header><body><segment><metadata><OBJECT_NAME>ORBCOMM FM40 [-]</OBJECT_NAME><OBJECT_ID>2008-031F</OBJECT_ID><CENTER_NAME>EARTH</CENTER_NAME><REF_FRAME>TEME</REF_FRAME><TIME_SYSTEM>UTC</TIME_SYSTEM><MEAN_ELEMENT_THEORY>SGP4</MEAN_ELEMENT_THEORY></metadata><data><meanElements><EPOCH>2023-09-07T06:41:22.735104</EPOCH><MEAN_MOTION>14.76013846</MEAN_MOTION><ECCENTRICITY>.0007078</ECCENTRICITY><INCLINATION>48.4427</INCLINATION><RA_OF_ASC_NODE>167.6718</RA_OF_ASC_NODE><ARG_OF_PERICENTER>127.7759</ARG_OF_PERICENTER><MEAN_ANOMALY>10.9946</MEAN_ANOMALY></meanElements><tleParameters><EPHEMERIS_TYPE>0</EPHEMERIS_TYPE><CLASSIFICATION_TYPE>U</CLASSIFICATION_TYPE><NORAD_CAT_ID>33065</NORAD_CAT_ID><ELEMENT_SET_NO>999</ELEMENT_SET_NO><REV_AT_EPOCH>81856</REV_AT_EPOCH><BSTAR>.38883E-3</BSTAR><MEAN_MOTION_DOT>.2501E-4</MEAN_MOTION_DOT><MEAN_MOTION_DDOT>0</MEAN_MOTION_DDOT></tleParameters></data></segment></body></omm>
<omm id="CCSDS_OMM_VERS" version="2.0">
<header><CREATION_DATE/><ORIGINATOR/></header><body><segment><metadata><OBJECT_NAME>VESSELSAT 1 [-]</OBJECT_NAME><OBJECT_ID>2011-058C</OBJECT_ID><CENTER_NAME>EARTH</CENTER_NAME><REF_FRAME>TEME</REF_FRAME><TIME_SYSTEM>UTC</TIME_SYSTEM><MEAN_ELEMENT_THEORY>SGP4</MEAN_ELEMENT_THEORY></metadata><data><meanElements><EPOCH>2023-09-07T03:14:35.221632</EPOCH><MEAN_MOTION>14.11056644</MEAN_MOTION><ECCENTRICITY>.0013647</ECCENTRICITY><INCLINATION>19.9628</INCLINATION><RA_OF_ASC_NODE>60.3038</RA_OF_ASC_NODE><ARG_OF_PERICENTER>248.7858</ARG_OF_PERICENTER><MEAN_ANOMALY>111.1088</MEAN_ANOMALY></meanElements><tleParameters><EPHEMERIS_TYPE>0</EPHEMERIS_TYPE><CLASSIFICATION_TYPE>U</CLASSIFICATION_TYPE><NORAD_CAT_ID>37840</NORAD_CAT_ID><ELEMENT_SET_NO>999</ELEMENT_SET_NO><REV_AT_EPOCH>61474</REV_AT_EPOCH><BSTAR>.65971E-4</BSTAR><MEAN_MOTION_DOT>.385E-5</MEAN_MOTION_DOT><MEAN_MOTION_DDOT>0</MEAN_MOTION_DDOT></tleParameters></data></segment></body></omm>
<omm id="CCSDS_OMM_VERS" version="2.0">
<header><CREATION_DATE/><ORIGINATOR/></header><body><segment><metadata><OBJECT_NAME>ORBCOMM FM109 [+]</OBJECT_NAME><OBJECT_ID>2014-040A</OBJECT_ID><CENTER_NAME>EARTH</CENTER_NAME><REF_FRAME>TEME</REF_FRAME><TIME_SYSTEM>UTC</TIME_SYSTEM><MEAN_ELEMENT_THEORY>SGP4</MEAN_ELEMENT_THEORY></metadata><data><meanElements><EPOCH>2023-09-07T06:16:49.831968</EPOCH><MEAN_MOTION>14.55875803</MEAN_MOTION><ECCENTRICITY>.0002221</ECCENTRICITY><INCLINATION>47.0035</INCLINATION><RA_OF_ASC_NODE>195.2384</RA_OF_ASC_NODE><ARG_OF_PERICENTER>235.5425</ARG_OF_PERICENTER><MEAN_ANOMALY>124.5250</MEAN_ANOMALY></meanElements><tleParameters><EPHEMERIS_TYPE>0</EPHEMERIS_TYPE><CLASSIFICATION_TYPE>U</CLASSIFICATION_TYPE><NORAD_CAT_ID>40086</NORAD_CAT_ID><ELEMENT_SET_NO>999</ELEMENT_SET_NO><REV_AT_EPOCH>48655</REV_AT_EPOCH><BSTAR>.26737E-3</BSTAR><MEAN_MOTION_DOT>.1018E-4</MEAN_MOTION_DOT><MEAN_MOTION_DDOT>0</MEAN_MOTION_DDOT></tleParameters></data></segment></body></omm>
<omm id="CCSDS_OMM_VERS" version="2.0">
<header><CREATION_DATE/><ORIGINATOR/></header><body><segment><metadata><OBJECT_NAME>ORBCOMM FM107 [+]</OBJECT_NAME><OBJECT_ID>2014-040B</OBJECT_ID><CENTER_NAME>EARTH</CENTER_NAME><REF_FRAME>TEME</REF_FRAME><TIME_SYSTEM>UTC</TIME_SYSTEM><MEAN_ELEMENT_THEORY>SGP4</MEAN_ELEMENT_THEORY></metadata><data><meanElements><EPOCH>2023-09-07T07:06:03.364992</EPOCH><MEAN_MOTION>14.55875307</MEAN_MOTION><ECCENTRICITY>.0001216</ECCENTRICITY><INCLINATION>47.0051</INCLINATION><RA_OF_ASC_NODE>196.0043</RA_OF_ASC_NODE><ARG_OF_PERICENTER>207.1923</ARG_OF_PERICENTER><MEAN_ANOMALY>152.8898</MEAN_ANOMALY></meanElements><tleParameters><EPHEMERIS_TYPE>0</EPHEMERIS_TYPE><CLASSIFICATION_TYPE>U</CLASSIFICATION_TYPE><NORAD_CAT_ID>40087</NORAD_CAT_ID><ELEMENT_SET_NO>999</ELEMENT_SET_NO><REV_AT_EPOCH>48655</REV_AT_EPOCH><BSTAR>.27067E-3</BSTAR><MEAN_MOTION_DOT>.1032E-4</MEAN_MOTION_DOT><MEAN_MOTION_DDOT>0</MEAN_MOTION_DDOT></tleParameters></data></segment></body></omm>
<omm id="CCSDS_OMM_VERS" version="2.0">
<header><CREATION_DATE/><ORIGINATOR/></header><body><segment><metadata><OBJECT_NAME>ORBCOMM FM106 [-]</OBJECT_NAME><OBJECT_ID>2014-040C</OBJECT_ID><CENTER_NAME>EARTH</CENTER_NAME><REF_FRAME>TEME</REF_FRAME><TIME_SYSTEM>UTC</TIME_SYSTEM><MEAN_ELEMENT_THEORY>SGP4</MEAN_ELEMENT_THEORY></metadata><data><meanElements><EPOCH>2023-09-06T21:28:29.754912</EPOCH><MEAN_MOTION>14.65945828</MEAN_MOTION><ECCENTRICITY>.0018643</ECCENTRICITY><INCLINATION>47.0620</INCLINATION><RA_OF_ASC_NODE>68.9142</RA_OF_ASC_NODE><ARG_OF_PERICENTER>295.8817</ARG_OF_PERICENTER><MEAN_ANOMALY>64.0150</MEAN_ANOMALY></meanElements><tleParameters><EPHEMERIS_TYPE>0</EPHEMERIS_TYPE><CLASSIFICATION_TYPE>U</CLASSIFICATION_TYPE><NORAD_CAT_ID>40088</NORAD_CAT_ID><ELEMENT_SET_NO>999</ELEMENT_SET_NO><REV_AT_EPOCH>48831</REV_AT_EPOCH><BSTAR>.23813E-3</BSTAR><MEAN_MOTION_DOT>.1135E-4</MEAN_MOTION_DOT><MEAN_MOTION_DDOT>0</MEAN_MOTION_DDOT></tleParameters></data></segment></body></omm>
<omm id="CCSDS_OMM_VERS" version="2.0">
<header><CREATION_DATE/><ORIGINATOR/></header><body><segment><metadata><OBJECT_NAME>ORBCOMM FM111 [-]</OBJECT_NAME><OBJECT_ID>2014-040D</OBJECT_ID><CENTER_NAME>EARTH</CENTER_NAME><REF_FRAME>TEME</REF_FRAME><TIME_SYSTEM>UTC</TIME_SYSTEM><MEAN_ELEMENT_THEORY>SGP4</MEAN_ELEMENT_THEORY></metadata><data><meanElements><EPOCH>2023-09-07T00:28:23.477952</EPOCH><MEAN_MOTION>14.79874441</MEAN_MOTION><ECCENTRICITY>.0033826</ECCENTRICITY><INCLINATION>47.0063</INCLINATION><RA_OF_ASC_NODE>357.6337</RA_OF_ASC_NODE><ARG_OF_PERICENTER>336.8213</ARG_OF_PERICENTER><MEAN_ANOMALY>23.1155</MEAN_ANOMALY></meanElements><tleParameters><EPHEMERIS_TYPE>0</EPHEMERIS_TYPE><CLASSIFICATION_TYPE>U</CLASSIFICATION_TYPE><NORAD_CAT_ID>40089</NORAD_CAT_ID><ELEMENT_SET_NO>999</ELEMENT_SET_NO><REV_AT_EPOCH>49388</REV_AT_EPOCH><BSTAR>.29854E-3</BSTAR><MEAN_MOTION_DOT>.2088E-4</MEAN_MOTION_DOT><MEAN_MOTION_DDOT>0</MEAN_MOTION_DDOT></tleParameters></data></segment></body></omm>
<omm id="CCSDS_OMM_VERS" version="2.0">
<header><CREATION_DATE/><ORIGINATOR/></header><body><segment><metadata><OBJECT_NAME>ORBCOMM FM104 [-]</OBJECT_NAME><OBJECT_ID>2014-040E</OBJECT_ID><CENTER_NAME>EARTH</CENTER_NAME><REF_FRAME>TEME</REF_FRAME><TIME_SYSTEM>UTC</TIME_SYSTEM><MEAN_ELEMENT_THEORY>SGP4</MEAN_ELEMENT_THEORY></metadata><data><meanElements><EPOCH>2023-09-07T08:44:19.447872</EPOCH><MEAN_MOTION>14.54440702</MEAN_MOTION><ECCENTRICITY>.0016375</ECCENTRICITY><INCLINATION>47.0047</INCLINATION><RA_OF_ASC_NODE>221.9078</RA_OF_ASC_NODE><ARG_OF_PERICENTER>124.9979</ARG_OF_PERICENTER><MEAN_ANOMALY>235.2445</MEAN_ANOMALY></meanElements><tleParameters><EPHEMERIS_TYPE>0</EPHEMERIS_TYPE><CLASSIFICATION_TYPE>U</CLASSIFICATION_TYPE><NORAD_CAT_ID>40090</NORAD_CAT_ID><ELEMENT_SET_NO>999</ELEMENT_SET_NO><REV_AT_EPOCH>48620</REV_AT_EPOCH><BSTAR>.21766E-3</BSTAR><MEAN_MOTION_DOT>.769E-5</MEAN_MOTION_DOT><MEAN_MOTION_DDOT>0</MEAN_MOTION_DDOT></tleParameters></data></segment></body></omm>

</ndm>
