ORBCOMM FM37 [-]        
1 33064U 08031E   23250.29116056  .00001765  00000+0  28968-3 0  9994
2 33064  48.4415 176.1507 0005654 120.0312  20.0700 14.75004786818435
ORBCOMM FM40 [-]        
1 33065U 08031F   23250.27873536  .00002501  00000+0  38883-3 0  9992
2 33065  48.4427 167.6718 0007078 127.7759  10.9946 14.76013846818561
VESSELSAT 1 [-]         
1 37840U 11058C   23250.13512988  .00000385  00000+0  65971-4 0  9993
2 37840  19.9628  60.3038 0013647 248.7858 111.1088 14.11056644614746
ORBCOMM FM109 [+]       
1 40086U 14040A   23250.26168787  .00001018  00000+0  26737-3 0  9991
2 40086  47.0035 195.2384 0002221 235.5425 124.5250 14.55875803486557
ORBCOMM FM107 [+]       
1 40087U 14040B   23250.29587228  .00001032  00000+0  27067-3 0  9993
2 40087  47.0051 196.0043 0001216 207.1923 152.8898 14.55875307486559
ORBCOMM FM106 [-]       
1 40088U 14040C   23249.89478883  .00001135  00000+0  23813-3 0  9993
2 40088  47.0620  68.9142 0018643 295.8817  64.0150 14.65945828488315
ORBCOMM FM111 [-]       
1 40089U 14040D   23250.01971618  .00002088  00000+0  29854-3 0  9993
2 40089  47.0063 357.6337 0033826 336.8213  23.1155 14.79874441493883
ORBCOMM FM104 [-]       
1 40090U 14040E   23250.36411398  .00000769  00000+0  21766-3 0  9995
2 40090  47.0047 221.9078 0016375 124.9979 235.2445 14.54440702486205
